{"type": "FeatureCollection", "features": [ {"type": "Feature", "properties": {"norad_id": 34327, "name": "COSMOS 2251 DEB", "group": "cosmos-2251-debris", "lat": -14.870174749241672, "lon": 158.06803862844743, "alt_km": 581.6131781779995, "timestamp": "2025-12-17T10:52:54.746370+00:00", "meta": {"OBJECT_NAME": "COSMOS 2251 DEB", "OBJECT_ID": "1993-036NZ", "EPOCH": "2025-12-16T22:35:46.744800", "MEAN_MOTION": 14.89276244, "ECCENTRICITY": 0.0033101, "INCLINATION": 73.9931, "RA_OF_ASC_NODE": 163.4649, "ARG_OF_PERICENTER": 338.9555, "MEAN_ANOMALY": 142.2894, "EPHEMERIS_TYPE": 0, "CLASSIFICATION_TYPE": "U", "NORAD_CAT_ID": 34327, "ELEMENT_SET_NO": 999, "REV_AT_EPOCH": 89570, "BSTAR": 0.00096093429, "MEAN_MOTION_DOT": 9.171e-05, "MEAN_MOTION_DDOT": 0}, "tle": {"line1": "1 34327U 93036NZ  25350.94151325  .00009171  00000+0  96093-3 0  9992", "line2": "2 34327  73.9931 163.4649 0033101 338.9555 142.2894 14.89276244895708"}}, "geometry": {"type": "Point", "coordinates": [158.06803862844743, -14.870174749241672]}}, {"type": "Feature", "properties": {"norad_id": 34340, "name": "COSMOS 2251 DEB", "group": "cosmos-2251-debris", "lat": 72.27694175894409, "lon": 3.382243021061679, "alt_km": 786.4968895123266, "timestamp": "2025-12-17T10:52:54.746380+00:00", "meta": {"OBJECT_NAME": "COSMOS 2251 DEB", "OBJECT_ID": "1993-036PN", "EPOCH": "2025-12-16T22:35:07.959840", "MEAN_MOTION": 13.79588609, "ECCENTRICITY": 0.02831894, "INCLINATION": 74.0791, "RA_OF_ASC_NODE": 300.9697, "ARG_OF_PERICENTER": 47.7539, "MEAN_ANOMALY": 8.935, "EPHEMERIS_TYPE": 0, "CLASSIFICATION_TYPE": "U", "NORAD_CAT_ID": 34340, "ELEMENT_SET_NO": 999, "REV_AT_EPOCH": 84326, "BSTAR": 0.0013393147, "MEAN_MOTION_DOT": 1.845e-05, "MEAN_MOTION_DDOT": 0}, "tle": {"line1": "1 34340U 93036PN  25350.94106435  .00001845  00000+0  13393-2 0  9990", "line2": "2 34340  74.0791 300.9697 0283189  47.7539   8.9350 13.79588609843268"}}, "geometry": {"type": "Point", "coordinates": [3.382243021061679, 72.27694175894409]}}, {"type": "Feature", "properties": {"norad_id": 34343, "name": "COSMOS 2251 DEB", "group": "cosmos-2251-debris", "lat": -54.07712364699017, "lon": -76.28729762382127, "alt_km": 676.6488922125618, "timestamp": "2025-12-17T10:52:54.746390+00:00", "meta": {"OBJECT_NAME": "COSMOS 2251 DEB", "OBJECT_ID": "1993-036PR", "EPOCH": "2025-12-16T16:21:48.601728", "MEAN_MOTION": 14.69505858, "ECCENTRICITY": 0.0023711, "INCLINATION": 74.0203, "RA_OF_ASC_NODE": 81.9096, "ARG_OF_PERICENTER": 355.3252, "MEAN_ANOMALY": 121.9942, "EPHEMERIS_TYPE": 0, "CLASSIFICATION_TYPE": "U", "NORAD_CAT_ID": 34343, "ELEMENT_SET_NO": 999, "REV_AT_EPOCH": 88788, "BSTAR": 0.00097217069, "MEAN_MOTION_DOT": 5.763e-05, "MEAN_MOTION_DDOT": 0}, "tle": {"line1": "1 34343U 93036PR  25350.68181252  .00005763  00000+0  97217-3 0  9995", "line2": "2 34343  74.0203  81.9096 0023711 355.3252 121.9942 14.69505858887885"}}, "geometry": {"type": "Point", "coordinates": [-76.28729762382127, -54.07712364699017]}}, {"type": "Feature", "properties": {"norad_id": 34344, "name": "COSMOS 2251 DEB", "group": "cosmos-2251-debris", "lat": 21.247130997747753, "lon": -84.48168435389537, "alt_km": 904.1220582628303, "timestamp": "2025-12-17T10:52:54.746401+00:00", "meta": {"OBJECT_NAME": "COSMOS 2251 DEB", "OBJECT_ID": "1993-036PS", "EPOCH": "2025-12-16T17:46:09.359904", "MEAN_MOTION": 14.16440188, "ECCENTRICITY": 0.01560961, "INCLINATION": 73.9781, "RA_OF_ASC_NODE": 103.2054, "ARG_OF_PERICENTER": 286.5462, "MEAN_ANOMALY": 198.2087, "EPHEMERIS_TYPE": 0, "CLASSIFICATION_TYPE": "U", "NORAD_CAT_ID": 34344, "ELEMENT_SET_NO": 999, "REV_AT_EPOCH": 86153, "BSTAR": 0.0015601329, "MEAN_MOTION_DOT": 3.469e-05, "MEAN_MOTION_DDOT": 0}, "tle": {"line1": "1 34344U 93036PS  25350.74038611  .00003469  00000+0  15601-2 0  9990", "line2": "2 34344  73.9781 103.2054 0156096 286.5462 198.2087 14.16440188861535"}}, "geometry": {"type": "Point", "coordinates": [-84.48168435389537, 21.247130997747753]}}, {"type": "Feature", "properties": {"norad_id": 34346, "name": "COSMOS 2251 DEB", "group": "cosmos-2251-debris", "lat": -13.337546317950032, "lon": -59.83422495053298, "alt_km": 1004.6590809332129, "timestamp": "2025-12-17T10:52:54.746411+00:00", "meta": {"OBJECT_NAME": "COSMOS 2251 DEB", "OBJECT_ID": "1993-036PU", "EPOCH": "2025-12-16T08:05:16.951200", "MEAN_MOTION": 13.99703788, "ECCENTRICITY": 0.02061805, "INCLINATION": 73.9948, "RA_OF_ASC_NODE": 306.0041, "ARG_OF_PERICENTER": 124.0573, "MEAN_ANOMALY": 0.4999, "EPHEMERIS_TYPE": 0, "CLASSIFICATION_TYPE": "U", "NORAD_CAT_ID": 34346, "ELEMENT_SET_NO": 999, "REV_AT_EPOCH": 85460, "BSTAR": 0.00067394044, "MEAN_MOTION_DOT": 1.162e-05, "MEAN_MOTION_DDOT": 0}, "tle": {"line1": "1 34346U 93036PU  25350.33700175  .00001162  00000+0  67394-3 0  9993", "line2": "2 34346  73.9948 306.0041 0206180 124.0573   0.4999 13.99703788854604"}}, "geometry": {"type": "Point", "coordinates": [-59.83422495053298, -13.337546317950032]}}, {"type": "Feature", "properties": {"norad_id": 34383, "name": "COSMOS 2251 DEB", "group": "cosmos-2251-debris", "lat": -58.38627302042402, "lon": 135.71751820816888, "alt_km": 546.5834579349466, "timestamp": "2025-12-17T10:52:54.746422+00:00", "meta": {"OBJECT_NAME": "COSMOS 2251 DEB", "OBJECT_ID": "1993-036PY", "EPOCH": "2025-12-16T21:19:57.305280", "MEAN_MOTION": 15.09361567, "ECCENTRICITY": 0.00027102, "INCLINATION": 74.0224, "RA_OF_ASC_NODE": 289.1407, "ARG_OF_PERICENTER": 46.3166, "MEAN_ANOMALY": 9.6501, "EPHEMERIS_TYPE": 0, "CLASSIFICATION_TYPE": "U", "NORAD_CAT_ID": 34383, "ELEMENT_SET_NO": 999, "REV_AT_EPOCH": 89176, "BSTAR": 0.0022610415, "MEAN_MOTION_DOT": 0.00036258, "MEAN_MOTION_DDOT": 0}, "tle": {"line1": "1 34383U 93036PY  25350.88885770  .00036258  00000+0  22610-2 0  9994", "line2": "2 34383  74.0224 289.1407 0002710  46.3166   9.6501 15.09361567891764"}}, "geometry": {"type": "Point", "coordinates": [135.71751820816888, -58.38627302042402]}}, {"type": "Feature", "properties": {"norad_id": 34387, "name": "COSMOS 2251 DEB", "group": "cosmos-2251-debris", "lat": 28.901042891313136, "lon": 14.044438365906863, "alt_km": 767.942058484211, "timestamp": "2025-12-17T10:52:54.746498+00:00", "meta": {"OBJECT_NAME": "COSMOS 2251 DEB", "OBJECT_ID": "1993-036QC", "EPOCH": "2025-12-16T16:09:32.488416", "MEAN_MOTION": 14.4382937, "ECCENTRICITY": 0.00387986, "INCLINATION": 74.0391, "RA_OF_ASC_NODE": 204.5845, "ARG_OF_PERICENTER": 300.8556, "MEAN_ANOMALY": 115.8479, "EPHEMERIS_TYPE": 0, "CLASSIFICATION_TYPE": "U", "NORAD_CAT_ID": 34387, "ELEMENT_SET_NO": 999, "REV_AT_EPOCH": 88238, "BSTAR": 0.00027401437, "MEAN_MOTION_DOT": 9.15e-06, "MEAN_MOTION_DDOT": 0}, "tle": {"line1": "1 34387U 93036QC  25350.67329269  .00000915  00000+0  27401-3 0  9996", "line2": "2 34387  74.0391 204.5845 0038798 300.8556 115.8479 14.43829370882386"}}, "geometry": {"type": "Point", "coordinates": [14.044438365906863, 28.901042891313136]}}, {"type": "Feature", "properties": {"norad_id": 34388, "name": "COSMOS 2251 DEB", "group": "cosmos-2251-debris", "lat": -44.32592030111381, "lon": 50.49779128238575, "alt_km": 725.9173299856038, "timestamp": "2025-12-17T10:52:54.746510+00:00", "meta": {"OBJECT_NAME": "COSMOS 2251 DEB", "OBJECT_ID": "1993-036QD", "EPOCH": "2025-12-16T17:33:58.605120", "MEAN_MOTION": 14.49386077, "ECCENTRICITY": 0.00139493, "INCLINATION": 74.0386, "RA_OF_ASC_NODE": 215.6173, "ARG_OF_PERICENTER": 263.5791, "MEAN_ANOMALY": 160.0286, "EPHEMERIS_TYPE": 0, "CLASSIFICATION_TYPE": "U", "NORAD_CAT_ID": 34388, "ELEMENT_SET_NO": 999, "REV_AT_EPOCH": 88213, "BSTAR": 0.000498496, "MEAN_MOTION_DOT": 1.881e-05, "MEAN_MOTION_DDOT": 0}, "tle": {"line1": "1 34388U 93036QD  25350.73192830  .00001881  00000+0  49850-3 0  9991", "line2": "2 34388  74.0386 215.6173 0013949 263.5791 160.0286 14.49386077882134"}}, "geometry": {"type": "Point", "coordinates": [50.49779128238575, -44.32592030111381]}}, {"type": "Feature", "properties": {"norad_id": 34389, "name": "COSMOS 2251 DEB", "group": "cosmos-2251-debris", "lat": 59.336621283281595, "lon": 32.1689346557796, "alt_km": 758.9388946903309, "timestamp": "2025-12-17T10:52:54.746522+00:00", "meta": {"OBJECT_NAME": "COSMOS 2251 DEB", "OBJECT_ID": "1993-036QE", "EPOCH": "2025-12-16T17:56:51.868320", "MEAN_MOTION": 14.415431, "ECCENTRICITY": 0.00290743, "INCLINATION": 74.0184, "RA_OF_ASC_NODE": 242.3823, "ARG_OF_PERICENTER": 353.6695, "MEAN_ANOMALY": 62.3085, "EPHEMERIS_TYPE": 0, "CLASSIFICATION_TYPE": "U", "NORAD_CAT_ID": 34389, "ELEMENT_SET_NO": 999, "REV_AT_EPOCH": 88070, "BSTAR": 0.00032683114, "MEAN_MOTION_DOT": 1.041e-05, "MEAN_MOTION_DDOT": 0}, "tle": {"line1": "1 34389U 93036QE  25350.74782255  .00001041  00000+0  32683-3 0  9993", "line2": "2 34389  74.0184 242.3823 0029074 353.6695  62.3085 14.41543100880706"}}, "geometry": {"type": "Point", "coordinates": [32.1689346557796, 59.336621283281595]}}, {"type": "Feature", "properties": {"norad_id": 34396, "name": "COSMOS 2251 DEB", "group": "cosmos-2251-debris", "lat": -55.66146653834717, "lon": -40.38843603565851, "alt_km": 653.0064575638535, "timestamp": "2025-12-17T10:52:54.746532+00:00", "meta": {"OBJECT_NAME": "COSMOS 2251 DEB", "OBJECT_ID": "1993-036QM", "EPOCH": "2025-12-16T19:43:27.748416", "MEAN_MOTION": 14.74531423, "ECCENTRICITY": 0.00056065, "INCLINATION": 74.0283, "RA_OF_ASC_NODE": 116.058, "ARG_OF_PERICENTER": 154.7868, "MEAN_ANOMALY": 333.1291, "EPHEMERIS_TYPE": 0, "CLASSIFICATION_TYPE": "U", "NORAD_CAT_ID": 34396, "ELEMENT_SET_NO": 999, "REV_AT_EPOCH": 88406, "BSTAR": 0.0015135939, "MEAN_MOTION_DOT": 0.00010058, "MEAN_MOTION_DDOT": 0}, "tle": {"line1": "1 34396U 93036QM  25350.82184894  .00010058  00000+0  15136-2 0  9996", "line2": "2 34396  74.0283 116.0580 0005606 154.7868 333.1291 14.74531423884060"}}, "geometry": {"type": "Point", "coordinates": [-40.38843603565851, -55.66146653834717]}}]}